[
    {
        "Altitude(m)": 624790.7812796616,
        "Argument of Periapsis(deg)": 0.0,
        "Eccentricity": 0.0,
        "Inclination(deg)": 60.0,
        "Latitude(deg)": -59.14707380756085,
        "Longitude(deg)": 146.03448533919567,
        "Mean Anomaly(deg)": -81.81820000000006,
        "RAAN(deg)": 320.0,
        "Satellite Name": "Test1 1425",
        "Satellite Number": 1425,
        "Semi-Major Axis(m)": 6980739.136638005,
        "Time(s)": 0
    },
    {
        "Altitude(m)": 624737.4367797255,
        "Argument of Periapsis(deg)": 0.00010418945913296404,
        "Eccentricity": 0.0,
        "Inclination(deg)": 60.0,
        "Latitude(deg)": -58.99453037068168,
        "Longitude(deg)": 147.15398676977088,
        "Mean Anomaly(deg)": -81.1980938545382,
        "RAAN(deg)": 319.9995799508602,
        "Satellite Name": "Test1 1425",
        "Satellite Number": 1425,
        "Semi-Major Axis(m)": 6980739.136638005,
        "Time(s)": 10
    }
]